{
  "type": "FeatureCollection",
  "features": [
    {
      "type": "Feature",
      "properties": {
        "norad_id": 45807,
        "name": "BEIDOU-3 G3 (C61)",
        "group": "gnss",
        "lat": -1.9380874122613128,
        "lon": -41.11780123214663,
        "alt_km": 35772.23571210535,
        "timestamp": "2025-12-23T07:45:09.648895+00:00",
        "meta_object_name": "BEIDOU-3 G3 (C61)",
        "meta_object_id": "2020-040A",
        "meta_epoch": "2025-12-22T22:15:02.225376",
        "meta_mean_motion": 1.00269046,
        "meta_eccentricity": 0.00065459,
        "meta_inclination": 2.0143,
        "meta_ra_of_asc_node": 66.6672,
        "meta_arg_of_pericenter": 309.2145,
        "meta_mean_anomaly": 160.1609,
        "meta_ephemeris_type": 0,
        "meta_classification_type": "U",
        "meta_norad_cat_id": 45807,
        "meta_element_set_no": 999,
        "meta_rev_at_epoch": 2030,
        "meta_bstar": 0,
        "meta_mean_motion_dot": -3.33e-06,
        "meta_mean_motion_ddot": 0,
        "tle_line1": "1 45807U 20040A   25356.92710909 -.00000333  00000+0  00000+0 0  9996",
        "tle_line2": "2 45807   2.0143  66.6672 0006545 309.2145 160.1609  1.00269046 20309"
      },
      "geometry": {
        "type": "Point",
        "coordinates": [
          -41.11780123214663,
          -1.9380874122613128
        ]
      }
    },
    {
      "type": "Feature",
      "properties": {
        "norad_id": 45854,
        "name": "GPS BIII-3  (PRN 23)",
        "group": "gnss",
        "lat": 49.39644465964966,
        "lon": 86.21004817535233,
        "alt_km": 20296.450568186923,
        "timestamp": "2025-12-23T07:45:09.648907+00:00",
        "meta_object_name": "GPS BIII-3  (PRN 23)",
        "meta_object_id": "2020-041A",
        "meta_epoch": "2025-12-22T05:37:47.217792",
        "meta_mean_motion": 2.00561833,
        "meta_eccentricity": 0.00606538,
        "meta_inclination": 56.5532,
        "meta_ra_of_asc_node": 35.8163,
        "meta_arg_of_pericenter": 203.667,
        "meta_mean_anomaly": 156.4419,
        "meta_ephemeris_type": 0,
        "meta_classification_type": "U",
        "meta_norad_cat_id": 45854,
        "meta_element_set_no": 999,
        "meta_rev_at_epoch": 4049,
        "meta_bstar": 0,
        "meta_mean_motion_dot": -5.1e-07,
        "meta_mean_motion_ddot": 0,
        "tle_line1": "1 45854U 20041A   25356.23457428 -.00000051  00000+0  00000+0 0  9994",
        "tle_line2": "2 45854  56.5532  35.8163 0060653 203.6670 156.4419  2.00561833 40499"
      },
      "geometry": {
        "type": "Point",
        "coordinates": [
          86.21004817535233,
          49.39644465964966
        ]
      }
    },
    {
      "type": "Feature",
      "properties": {
        "norad_id": 46114,
        "name": "GALAXY 30 (WAAS/PRN 135)",
        "group": "gnss",
        "lat": 0.04156024520196723,
        "lon": 83.40133460725845,
        "alt_km": 35795.02756375889,
        "timestamp": "2025-12-23T07:45:09.648918+00:00",
        "meta_object_name": "GALAXY 30 (WAAS/PRN 135)",
        "meta_object_id": "2020-056C",
        "meta_epoch": "2025-12-22T14:16:55.506432",
        "meta_mean_motion": 1.00270121,
        "meta_eccentricity": 0.00020176,
        "meta_inclination": 0.0183,
        "meta_ra_of_asc_node": 9.653,
        "meta_arg_of_pericenter": 256.7413,
        "meta_mean_anomaly": 274.2401,
        "meta_ephemeris_type": 0,
        "meta_classification_type": "U",
        "meta_norad_cat_id": 46114,
        "meta_element_set_no": 999,
        "meta_rev_at_epoch": 1952,
        "meta_bstar": 0,
        "meta_mean_motion_dot": 5.8e-07,
        "meta_mean_motion_ddot": 0,
        "tle_line1": "1 46114U 20056C   25356.59508688  .00000058  00000+0  00000+0 0  9990",
        "tle_line2": "2 46114   0.0183   9.6530 0002017 256.7413 274.2401  1.00270121 19522"
      },
      "geometry": {
        "type": "Point",
        "coordinates": [
          83.40133460725845,
          0.04156024520196723
        ]
      }
    },
    {
      "type": "Feature",
      "properties": {
        "norad_id": 46805,
        "name": "COSMOS 2547 (705K)",
        "group": "gnss",
        "lat": -64.5693051073019,
        "lon": 108.71331450247088,
        "alt_km": 19125.12271336322,
        "timestamp": "2025-12-23T07:45:09.648930+00:00",
        "meta_object_name": "COSMOS 2547 (705K)",
        "meta_object_id": "2020-075A",
        "meta_epoch": "2025-12-22T00:46:38.571168",
        "meta_mean_motion": 2.13100252,
        "meta_eccentricity": 0.000611,
        "meta_inclination": 64.5967,
        "meta_ra_of_asc_node": 198.3861,
        "meta_arg_of_pericenter": 227.6651,
        "meta_mean_anomaly": 132.3515,
        "meta_ephemeris_type": 0,
        "meta_classification_type": "U",
        "meta_norad_cat_id": 46805,
        "meta_element_set_no": 999,
        "meta_rev_at_epoch": 4013,
        "meta_bstar": 0,
        "meta_mean_motion_dot": 9.6e-07,
        "meta_mean_motion_ddot": 0,
        "tle_line1": "1 46805U 20075A   25356.03239087  .00000096  00000+0  00000+0 0  9993",
        "tle_line2": "2 46805  64.5967 198.3861 0006110 227.6651 132.3515  2.13100252 40139"
      },
      "geometry": {
        "type": "Point",
        "coordinates": [
          108.71331450247088,
          -64.5693051073019
        ]
      }
    },
    {
      "type": "Feature",
      "properties": {
        "norad_id": 46826,
        "name": "GPS BIII-4  (PRN 14)",
        "group": "gnss",
        "lat": 29.15886013848571,
        "lon": -118.15796087622292,
        "alt_km": 20345.910902000425,
        "timestamp": "2025-12-23T07:45:09.648941+00:00",
        "meta_object_name": "GPS BIII-4  (PRN 14)",
        "meta_object_id": "2020-078A",
        "meta_epoch": "2025-12-16T01:06:13.902336",
        "meta_mean_motion": 2.00566891,
        "meta_eccentricity": 0.0064755,
        "meta_inclination": 54.0145,
        "meta_ra_of_asc_node": 218.2068,
        "meta_arg_of_pericenter": 203.3828,
        "meta_mean_anomaly": 339.3936,
        "meta_ephemeris_type": 0,
        "meta_classification_type": "U",
        "meta_norad_cat_id": 46826,
        "meta_element_set_no": 999,
        "meta_rev_at_epoch": 3783,
        "meta_bstar": 0,
        "meta_mean_motion_dot": 6.7e-07,
        "meta_mean_motion_ddot": 0,
        "tle_line1": "1 46826U 20078A   25350.04599424  .00000067  00000+0  00000+0 0  9996",
        "tle_line2": "2 46826  54.0145 218.2068 0064755 203.3828 339.3936  2.00566891 37831"
      },
      "geometry": {
        "type": "Point",
        "coordinates": [
          -118.15796087622292,
          29.15886013848571
        ]
      }
    },
    {
      "type": "Feature",
      "properties": {
        "norad_id": 48859,
        "name": "GPS BIII-5  (PRN 11)",
        "group": "gnss",
        "lat": -33.37204515018329,
        "lon": -173.28547443372014,
        "alt_km": 20123.12824803102,
        "timestamp": "2025-12-23T07:45:09.648952+00:00",
        "meta_object_name": "GPS BIII-5  (PRN 11)",
        "meta_object_id": "2021-054A",
        "meta_epoch": "2025-12-08T04:14:32.423424",
        "meta_mean_motion": 2.00553627,
        "meta_eccentricity": 0.0024678,
        "meta_inclination": 55.2581,
        "meta_ra_of_asc_node": 340.1367,
        "meta_arg_of_pericenter": 233.3993,
        "meta_mean_anomaly": 212.8594,
        "meta_ephemeris_type": 0,
        "meta_classification_type": "U",
        "meta_norad_cat_id": 48859,
        "meta_element_set_no": 999,
        "meta_rev_at_epoch": 3292,
        "meta_bstar": 0,
        "meta_mean_motion_dot": -8.6e-07,
        "meta_mean_motion_ddot": 0,
        "tle_line1": "1 48859U 21054A   25342.17676416 -.00000086  00000+0  00000+0 0  9993",
        "tle_line2": "2 48859  55.2581 340.1367 0024678 233.3993 212.8594  2.00553627 32922"
      },
      "geometry": {
        "type": "Point",
        "coordinates": [
          -173.28547443372014,
          -33.37204515018329
        ]
      }
    },
    {
      "type": "Feature",
      "properties": {
        "norad_id": 49336,
        "name": "QZS-1R (QZSS/PRN 196)",
        "group": "gnss",
        "lat": -36.26773789704936,
        "lon": -22.108417206608372,
        "alt_km": 32682.25579962225,
        "timestamp": "2025-12-23T07:45:09.648964+00:00",
        "meta_object_name": "QZS-1R (QZSS/PRN 196)",
        "meta_object_id": "2021-096A",
        "meta_epoch": "2025-12-22T13:50:43.015200",
        "meta_mean_motion": 1.00254287,
        "meta_eccentricity": 0.07571253,
        "meta_inclination": 37.0967,
        "meta_ra_of_asc_node": 82.2147,
        "meta_arg_of_pericenter": 271.501,
        "meta_mean_anomaly": 79.4971,
        "meta_ephemeris_type": 0,
        "meta_classification_type": "U",
        "meta_norad_cat_id": 49336,
        "meta_element_set_no": 999,
        "meta_rev_at_epoch": 1523,
        "meta_bstar": 0,
        "meta_mean_motion_dot": -2.47e-06,
        "meta_mean_motion_ddot": 0,
        "tle_line1": "1 49336U 21096A   25356.57688675 -.00000247  00000+0  00000+0 0  9998",
        "tle_line2": "2 49336  37.0967  82.2147 0757125 271.5010  79.4971  1.00254287 15233"
      },
      "geometry": {
        "type": "Point",
        "coordinates": [
          -22.108417206608372,
          -36.26773789704936
        ]
      }
    }
  ]
}